[{"OBJECT_NAME":"TEVEL2-6","OBJECT_ID":"2025-052F","EPOCH":"2026-03-09T15:35:24.554400","MEAN_MOTION":15.30760889,"ECCENTRICITY":0.0004769,"INCLINATION":97.4016,"RA_OF_ASC_NODE":325.0381,"ARG_OF_PERICENTER":95.6604,"MEAN_ANOMALY":264.5181,"EPHEMERIS_TYPE":0,"CLASSIFICATION_TYPE":"U","NORAD_CAT_ID":63215,"ELEMENT_SET_NO":999,"REV_AT_EPOCH":5486,"BSTAR":0.00070909,"MEAN_MOTION_DOT":0.00021046,"MEAN_MOTION_DDOT":0},{"OBJECT_NAME":"STARLINK-34168","OBJECT_ID":"2025-107R","EPOCH":"2026-03-09T10:14:26.842848","MEAN_MOTION":15.27585044,"ECCENTRICITY":0.00013038,"INCLINATION":43.002,"RA_OF_ASC_NODE":202.7402,"ARG_OF_PERICENTER":242.1444,"MEAN_ANOMALY":117.9276,"EPHEMERIS_TYPE":0,"CLASSIFICATION_TYPE":"U","NORAD_CAT_ID":64079,"ELEMENT_SET_NO":999,"REV_AT_EPOCH":4608,"BSTAR":0.0014423204,"MEAN_MOTION_DOT":0.00039647,"MEAN_MOTION_DDOT":0}]
